{
  "type": "FeatureCollection",
  "features": [
    {
      "type": "Feature",
      "properties": {
        "norad_id": 66561,
        "name": "STARLINK-35305",
        "group": "last-30-days",
        "lat": 11.459173323046025,
        "lon": -22.219934806028547,
        "alt_km": 353.80125308624247,
        "timestamp": "2025-12-04T09:47:36.303047+00:00",
        "meta_object_name": "STARLINK-35305",
        "meta_object_id": "2025-268E",
        "meta_epoch": "2025-12-03T22:00:03.000096",
        "meta_mean_motion": 15.73315518,
        "meta_eccentricity": 0.00013792,
        "meta_inclination": 42.999,
        "meta_ra_of_asc_node": 173.3146,
        "meta_arg_of_pericenter": 267.4279,
        "meta_mean_anomaly": 350.9419,
        "meta_ephemeris_type": 0,
        "meta_classification_type": "U",
        "meta_norad_cat_id": 66561,
        "meta_element_set_no": 999,
        "meta_rev_at_epoch": 320,
        "meta_bstar": -0.014885306,
        "meta_mean_motion_dot": -0.01851041,
        "meta_mean_motion_ddot": 0,
        "tle_line1": "1 66561U 25268E   25337.91670139 -.01851041  00000+0 -14885-1 0  9991",
        "tle_line2": "2 66561  42.9990 173.3146 0001379 267.4279 350.9419 15.73315518  3206"
      },
      "geometry": {
        "type": "Point",
        "coordinates": [
          -22.219934806028547,
          11.459173323046025
        ]
      }
    },
    {
      "type": "Feature",
      "properties": {
        "norad_id": 66562,
        "name": "STARLINK-35579",
        "group": "last-30-days",
        "lat": 12.732357657245354,
        "lon": -23.68404994696277,
        "alt_km": 353.5441090583681,
        "timestamp": "2025-12-04T09:47:36.303060+00:00",
        "meta_object_name": "STARLINK-35579",
        "meta_object_id": "2025-268F",
        "meta_epoch": "2025-12-03T22:00:03.000096",
        "meta_mean_motion": 15.7331828,
        "meta_eccentricity": 0.00014083,
        "meta_inclination": 42.999,
        "meta_ra_of_asc_node": 173.3191,
        "meta_arg_of_pericenter": 263.0048,
        "meta_mean_anomaly": 353.4451,
        "meta_ephemeris_type": 0,
        "meta_classification_type": "U",
        "meta_norad_cat_id": 66562,
        "meta_element_set_no": 999,
        "meta_rev_at_epoch": 325,
        "meta_bstar": -0.014903321,
        "meta_mean_motion_dot": -0.01853205,
        "meta_mean_motion_ddot": 0,
        "tle_line1": "1 66562U 25268F   25337.91670139 -.01853205  00000+0 -14903-1 0  9997",
        "tle_line2": "2 66562  42.9990 173.3191 0001408 263.0048 353.4451 15.73318280  3254"
      },
      "geometry": {
        "type": "Point",
        "coordinates": [
          -23.68404994696277,
          12.732357657245354
        ]
      }
    },
    {
      "type": "Feature",
      "properties": {
        "norad_id": 66563,
        "name": "STARLINK-35437",
        "group": "last-30-days",
        "lat": 10.181439416922956,
        "lon": -20.772616418685587,
        "alt_km": 354.0702139170771,
        "timestamp": "2025-12-04T09:47:36.303072+00:00",
        "meta_object_name": "STARLINK-35437",
        "meta_object_id": "2025-268G",
        "meta_epoch": "2025-12-03T22:00:03.000096",
        "meta_mean_motion": 15.73327786,
        "meta_eccentricity": 0.00014787,
        "meta_inclination": 42.999,
        "meta_ra_of_asc_node": 173.3096,
        "meta_arg_of_pericenter": 270.9251,
        "meta_mean_anomaly": 349.3517,
        "meta_ephemeris_type": 0,
        "meta_classification_type": "U",
        "meta_norad_cat_id": 66563,
        "meta_element_set_no": 999,
        "meta_rev_at_epoch": 325,
        "meta_bstar": -0.014995211,
        "meta_mean_motion_dot": -0.01863849,
        "meta_mean_motion_ddot": 0,
        "tle_line1": "1 66563U 25268G   25337.91670139 -.01863849  00000+0 -14995-1 0  9994",
        "tle_line2": "2 66563  42.9990 173.3096 0001478 270.9251 349.3517 15.73327786  3257"
      },
      "geometry": {
        "type": "Point",
        "coordinates": [
          -20.772616418685587,
          10.181439416922956
        ]
      }
    },
    {
      "type": "Feature",
      "properties": {
        "norad_id": 66564,
        "name": "STARLINK-35358",
        "group": "last-30-days",
        "lat": 8.895070398196276,
        "lon": -19.33383663910438,
        "alt_km": 354.0619812911009,
        "timestamp": "2025-12-04T09:47:36.303083+00:00",
        "meta_object_name": "STARLINK-35358",
        "meta_object_id": "2025-268H",
        "meta_epoch": "2025-12-03T22:00:03.000096",
        "meta_mean_motion": 15.73336935,
        "meta_eccentricity": 0.00014243,
        "meta_inclination": 42.9991,
        "meta_ra_of_asc_node": 173.3051,
        "meta_arg_of_pericenter": 265.4458,
        "meta_mean_anomaly": 356.739,
        "meta_ephemeris_type": 0,
        "meta_classification_type": "U",
        "meta_norad_cat_id": 66564,
        "meta_element_set_no": 999,
        "meta_rev_at_epoch": 320,
        "meta_bstar": -0.01504336,
        "meta_mean_motion_dot": -0.01869637,
        "meta_mean_motion_ddot": 0,
        "tle_line1": "1 66564U 25268H   25337.91670139 -.01869637  00000+0 -15043-1 0  9991",
        "tle_line2": "2 66564  42.9991 173.3051 0001424 265.4458 356.7390 15.73336935  3201"
      },
      "geometry": {
        "type": "Point",
        "coordinates": [
          -19.33383663910438,
          8.895070398196276
        ]
      }
    },
    {
      "type": "Feature",
      "properties": {
        "norad_id": 66565,
        "name": "STARLINK-35893",
        "group": "last-30-days",
        "lat": 7.605188430646959,
        "lon": -17.90807037844858,
        "alt_km": 354.37377335989186,
        "timestamp": "2025-12-04T09:47:36.303092+00:00",
        "meta_object_name": "STARLINK-35893",
        "meta_object_id": "2025-268J",
        "meta_epoch": "2025-12-03T22:00:03.000096",
        "meta_mean_motion": 15.73315615,
        "meta_eccentricity": 0.0001597,
        "meta_inclination": 42.9991,
        "meta_ra_of_asc_node": 173.2999,
        "meta_arg_of_pericenter": 270.6981,
        "meta_mean_anomaly": 353.4224,
        "meta_ephemeris_type": 0,
        "meta_classification_type": "U",
        "meta_norad_cat_id": 66565,
        "meta_element_set_no": 999,
        "meta_rev_at_epoch": 325,
        "meta_bstar": -0.014899846,
        "meta_mean_motion_dot": -0.01852804,
        "meta_mean_motion_ddot": 0,
        "tle_line1": "1 66565U 25268J   25337.91670139 -.01852804  00000+0 -14900-1 0  9991",
        "tle_line2": "2 66565  42.9991 173.2999 0001597 270.6981 353.4224 15.73315615  3259"
      },
      "geometry": {
        "type": "Point",
        "coordinates": [
          -17.90807037844858,
          7.605188430646959
        ]
      }
    },
    {
      "type": "Feature",
      "properties": {
        "norad_id": 66566,
        "name": "STARLINK-35871",
        "group": "last-30-days",
        "lat": 6.309252971506317,
        "lon": -16.48904968432438,
        "alt_km": 354.4946182137119,
        "timestamp": "2025-12-04T09:47:36.303102+00:00",
        "meta_object_name": "STARLINK-35871",
        "meta_object_id": "2025-268K",
        "meta_epoch": "2025-12-03T22:00:03.000096",
        "meta_mean_motion": 15.73317848,
        "meta_eccentricity": 0.00015955,
        "meta_inclination": 42.999,
        "meta_ra_of_asc_node": 173.2951,
        "meta_arg_of_pericenter": 269.9409,
        "meta_mean_anomaly": 356.0951,
        "meta_ephemeris_type": 0,
        "meta_classification_type": "U",
        "meta_norad_cat_id": 66566,
        "meta_element_set_no": 999,
        "meta_rev_at_epoch": 325,
        "meta_bstar": -0.014919112,
        "meta_mean_motion_dot": -0.0185504,
        "meta_mean_motion_ddot": 0,
        "tle_line1": "1 66566U 25268K   25337.91670139 -.01855040  00000+0 -14919-1 0  9997",
        "tle_line2": "2 66566  42.9990 173.2951 0001595 269.9409 356.0951 15.73317848  3257"
      },
      "geometry": {
        "type": "Point",
        "coordinates": [
          -16.48904968432438,
          6.309252971506317
        ]
      }
    },
    {
      "type": "Feature",
      "properties": {
        "norad_id": 66567,
        "name": "STARLINK-35825",
        "group": "last-30-days",
        "lat": 5.007272563603145,
        "lon": -15.074624259229525,
        "alt_km": 354.5102007013911,
        "timestamp": "2025-12-04T09:47:36.303113+00:00",
        "meta_object_name": "STARLINK-35825",
        "meta_object_id": "2025-268L",
        "meta_epoch": "2025-12-03T22:00:03.000096",
        "meta_mean_motion": 15.73318494,
        "meta_eccentricity": 0.00014475,
        "meta_inclination": 42.999,
        "meta_ra_of_asc_node": 173.2904,
        "meta_arg_of_pericenter": 266.2271,
        "meta_mean_anomaly": 1.725,
        "meta_ephemeris_type": 0,
        "meta_classification_type": "U",
        "meta_norad_cat_id": 66567,
        "meta_element_set_no": 999,
        "meta_rev_at_epoch": 325,
        "meta_bstar": -0.014905307,
        "meta_mean_motion_dot": -0.01853468,
        "meta_mean_motion_ddot": 0,
        "tle_line1": "1 66567U 25268L   25337.91670139 -.01853468  00000+0 -14905-1 0  9995",
        "tle_line2": "2 66567  42.9990 173.2904 0001447 266.2271   1.7250 15.73318494  3253"
      },
      "geometry": {
        "type": "Point",
        "coordinates": [
          -15.074624259229525,
          5.007272563603145
        ]
      }
    }
  ]
}